STARLINK-36954          
1 68057U 26041T   26090.89882296  .00475844  00000+0  29071-2 0  9990
2 68057  53.1585 311.3919 0002019 122.3110 237.8106 15.75475235  4728
STARLINK-36899          
1 68058U 26041U   26090.89461074  .00488274  00000+0  29769-2 0  9993
2 68058  53.1581 311.3647 0002166 120.2538 239.8697 15.75487559  4726
STARLINK-36917          
1 68059U 26041V   26090.06041080  .00145062  00000+0  93232-3 0  9996
2 68059  53.1569 315.4021 0002808  20.4791 339.6341 15.75285958  4598
STARLINK-36959          
1 68060U 26041W   26090.89007209  .00457993  00000+0  28048-2 0  9995
2 68060  53.1562 311.3317 0001567 117.4136 242.7044 15.75469536  4722
STARLINK-36915          
1 68061U 26041X   26090.87191778  .00260504  00000+0  16472-2 0  9997
2 68061  53.1587 311.2108 0000510  92.2253 267.8826 15.75301601  4728
STARLINK-36952          
1 68062U 26041Y   26090.89428214  .00432936  00000+0  26609-2 0  9991
2 68062  53.1578 311.3610 0002012 123.8151 236.3061 15.75458153  4722
STARLINK-37000          
1 68063U 26041Z   26090.87645443  .00258360  00000+0  16289-2 0  9995
2 68063  53.1588 311.2415 0001266 174.0790 186.0245 15.75374653  4720
STARLINK-36996          
1 68064U 26041AA  26090.34619378  .00241446  00000+0  15306-2 0  9992
2 68064  53.1587 313.6133 0000918  89.7844 270.3282 15.75299933  4644
STARLINK-36836          
1 68065U 26041AB  26090.34586663  .00391657  00000+0  24292-2 0  9997
2 68065  53.1580 313.6110 0000627  68.0403 292.0684 15.75364525  4648
STARLINK-36976          
1 68066U 26041AC  26090.06072914  .00426828  00000+0  26244-2 0  9994
2 68066  53.1565 315.4003 0001174 284.2660  75.8230 15.75465766  4595
STARLINK-36929          
1 68067U 26041AD  26090.88974522  .00265957  00000+0  16742-2 0  9997
2 68067  53.1572 311.3291 0000475 145.3226 214.7825 15.75387210  4722
STARLINK-36990          
1 68068U 26041AE  26090.89351521  .00354472  00000+0  17114-2 0  9992
2 68068  53.1574 310.6161 0001908 119.9249 240.1964 15.81067677  4734
STARLINK-36766          
1 68069U 26042A   26090.83335647  .00016157  00000+0  10943-3 0  9998
2 68069  53.1587  83.8882 0001126  78.3047 296.7950 15.75224611  5609
STARLINK-36823          
1 68070U 26042B   26090.69585786  .00321757  00000+0  15673-2 0  9994
2 68070  53.1565  84.4814 0001174 104.4186 255.6967 15.80961766  5569
STARLINK-36970          
1 68071U 26042C   26090.40053814  .00289472  00000+0  18240-2 0  9996
2 68071  53.1584  86.2030 0001025  95.9439 264.1698 15.75296563  5512
STARLINK-36972          
1 68072U 26042D   26090.83335647 -.01816413  00000+0 -12246-1 0  9994
2 68072  53.1583  83.7915 0000748 106.6338 315.9138 15.77467560  5619
