[{"OBJECT_NAME":"STARLINK-36954","OBJECT_ID":"2026-041T","EPOCH":"2026-03-31T21:34:18.303744","MEAN_MOTION":15.75475235,"ECCENTRICITY":0.0002019,"INCLINATION":53.1585,"RA_OF_ASC_NODE":311.3919,"ARG_OF_PERICENTER":122.311,"MEAN_ANOMALY":237.8106,"EPHEMERIS_TYPE":0,"CLASSIFICATION_TYPE":"U","NORAD_CAT_ID":68057,"ELEMENT_SET_NO":999,"REV_AT_EPOCH":472,"BSTAR":0.0029071,"MEAN_MOTION_DOT":0.00475844,"MEAN_MOTION_DDOT":0},{"OBJECT_NAME":"STARLINK-36899","OBJECT_ID":"2026-041U","EPOCH":"2026-03-31T21:28:14.367936","MEAN_MOTION":15.75487559,"ECCENTRICITY":0.0002166,"INCLINATION":53.1581,"RA_OF_ASC_NODE":311.3647,"ARG_OF_PERICENTER":120.2538,"MEAN_ANOMALY":239.8697,"EPHEMERIS_TYPE":0,"CLASSIFICATION_TYPE":"U","NORAD_CAT_ID":68058,"ELEMENT_SET_NO":999,"REV_AT_EPOCH":472,"BSTAR":0.0029769,"MEAN_MOTION_DOT":0.00488274,"MEAN_MOTION_DDOT":0},{"OBJECT_NAME":"STARLINK-36917","OBJECT_ID":"2026-041V","EPOCH":"2026-03-31T01:26:59.493120","MEAN_MOTION":15.75285958,"ECCENTRICITY":0.0002808,"INCLINATION":53.1569,"RA_OF_ASC_NODE":315.4021,"ARG_OF_PERICENTER":20.4791,"MEAN_ANOMALY":339.6341,"EPHEMERIS_TYPE":0,"CLASSIFICATION_TYPE":"U","NORAD_CAT_ID":68059,"ELEMENT_SET_NO":999,"REV_AT_EPOCH":459,"BSTAR":0.00093232,"MEAN_MOTION_DOT":0.00145062,"MEAN_MOTION_DDOT":0},{"OBJECT_NAME":"STARLINK-36959","OBJECT_ID":"2026-041W","EPOCH":"2026-03-31T21:21:42.228576","MEAN_MOTION":15.75469536,"ECCENTRICITY":0.0001567,"INCLINATION":53.1562,"RA_OF_ASC_NODE":311.3317,"ARG_OF_PERICENTER":117.4136,"MEAN_ANOMALY":242.7044,"EPHEMERIS_TYPE":0,"CLASSIFICATION_TYPE":"U","NORAD_CAT_ID":68060,"ELEMENT_SET_NO":999,"REV_AT_EPOCH":472,"BSTAR":0.0028048,"MEAN_MOTION_DOT":0.00457993,"MEAN_MOTION_DDOT":0},{"OBJECT_NAME":"STARLINK-36915","OBJECT_ID":"2026-041X","EPOCH":"2026-03-31T20:55:33.696192","MEAN_MOTION":15.75301601,"ECCENTRICITY":5.1e-5,"INCLINATION":53.1587,"RA_OF_ASC_NODE":311.2108,"ARG_OF_PERICENTER":92.2253,"MEAN_ANOMALY":267.8826,"EPHEMERIS_TYPE":0,"CLASSIFICATION_TYPE":"U","NORAD_CAT_ID":68061,"ELEMENT_SET_NO":999,"REV_AT_EPOCH":472,"BSTAR":0.0016472,"MEAN_MOTION_DOT":0.00260504,"MEAN_MOTION_DDOT":0},{"OBJECT_NAME":"STARLINK-36952","OBJECT_ID":"2026-041Y","EPOCH":"2026-03-31T21:27:45.976896","MEAN_MOTION":15.75458153,"ECCENTRICITY":0.0002012,"INCLINATION":53.1578,"RA_OF_ASC_NODE":311.361,"ARG_OF_PERICENTER":123.8151,"MEAN_ANOMALY":236.3061,"EPHEMERIS_TYPE":0,"CLASSIFICATION_TYPE":"U","NORAD_CAT_ID":68062,"ELEMENT_SET_NO":999,"REV_AT_EPOCH":472,"BSTAR":0.0026609,"MEAN_MOTION_DOT":0.00432936,"MEAN_MOTION_DDOT":0},{"OBJECT_NAME":"STARLINK-37000","OBJECT_ID":"2026-041Z","EPOCH":"2026-03-31T21:02:05.662752","MEAN_MOTION":15.75374653,"ECCENTRICITY":0.0001266,"INCLINATION":53.1588,"RA_OF_ASC_NODE":311.2415,"ARG_OF_PERICENTER":174.079,"MEAN_ANOMALY":186.0245,"EPHEMERIS_TYPE":0,"CLASSIFICATION_TYPE":"U","NORAD_CAT_ID":68063,"ELEMENT_SET_NO":999,"REV_AT_EPOCH":472,"BSTAR":0.0016289,"MEAN_MOTION_DOT":0.0025836,"MEAN_MOTION_DDOT":0},{"OBJECT_NAME":"STARLINK-36996","OBJECT_ID":"2026-041AA","EPOCH":"2026-03-31T08:18:31.142592","MEAN_MOTION":15.75299933,"ECCENTRICITY":9.186e-5,"INCLINATION":53.1587,"RA_OF_ASC_NODE":313.6133,"ARG_OF_PERICENTER":89.7844,"MEAN_ANOMALY":270.3282,"EPHEMERIS_TYPE":0,"CLASSIFICATION_TYPE":"U","NORAD_CAT_ID":68064,"ELEMENT_SET_NO":999,"REV_AT_EPOCH":464,"BSTAR":0.0015306083,"MEAN_MOTION_DOT":0.00241446,"MEAN_MOTION_DDOT":0},{"OBJECT_NAME":"STARLINK-36836","OBJECT_ID":"2026-041AB","EPOCH":"2026-03-31T08:18:02.876832","MEAN_MOTION":15.75364525,"ECCENTRICITY":6.275e-5,"INCLINATION":53.158,"RA_OF_ASC_NODE":313.611,"ARG_OF_PERICENTER":68.0403,"MEAN_ANOMALY":292.0684,"EPHEMERIS_TYPE":0,"CLASSIFICATION_TYPE":"U","NORAD_CAT_ID":68065,"ELEMENT_SET_NO":999,"REV_AT_EPOCH":464,"BSTAR":0.0024291933,"MEAN_MOTION_DOT":0.00391657,"MEAN_MOTION_DDOT":0},{"OBJECT_NAME":"STARLINK-36976","OBJECT_ID":"2026-041AC","EPOCH":"2026-03-31T01:27:26.997696","MEAN_MOTION":15.75465766,"ECCENTRICITY":0.00011746,"INCLINATION":53.1565,"RA_OF_ASC_NODE":315.4003,"ARG_OF_PERICENTER":284.266,"MEAN_ANOMALY":75.823,"EPHEMERIS_TYPE":0,"CLASSIFICATION_TYPE":"U","NORAD_CAT_ID":68066,"ELEMENT_SET_NO":999,"REV_AT_EPOCH":459,"BSTAR":0.0026243596,"MEAN_MOTION_DOT":0.00426828,"MEAN_MOTION_DDOT":0},{"OBJECT_NAME":"STARLINK-36929","OBJECT_ID":"2026-041AD","EPOCH":"2026-03-31T21:21:13.987008","MEAN_MOTION":15.7538721,"ECCENTRICITY":4.75e-5,"INCLINATION":53.1572,"RA_OF_ASC_NODE":311.3291,"ARG_OF_PERICENTER":145.3226,"MEAN_ANOMALY":214.7825,"EPHEMERIS_TYPE":0,"CLASSIFICATION_TYPE":"U","NORAD_CAT_ID":68067,"ELEMENT_SET_NO":999,"REV_AT_EPOCH":472,"BSTAR":0.0016742,"MEAN_MOTION_DOT":0.00265957,"MEAN_MOTION_DDOT":0},{"OBJECT_NAME":"STARLINK-36990","OBJECT_ID":"2026-041AE","EPOCH":"2026-03-31T21:26:39.714144","MEAN_MOTION":15.81067677,"ECCENTRICITY":0.0001908,"INCLINATION":53.1574,"RA_OF_ASC_NODE":310.6161,"ARG_OF_PERICENTER":119.9249,"MEAN_ANOMALY":240.1964,"EPHEMERIS_TYPE":0,"CLASSIFICATION_TYPE":"U","NORAD_CAT_ID":68068,"ELEMENT_SET_NO":999,"REV_AT_EPOCH":473,"BSTAR":0.0017114,"MEAN_MOTION_DOT":0.00354472,"MEAN_MOTION_DDOT":0},{"OBJECT_NAME":"STARLINK-36766","OBJECT_ID":"2026-042A","EPOCH":"2026-03-31T20:00:01.999008","MEAN_MOTION":15.75224611,"ECCENTRICITY":0.0001126,"INCLINATION":53.1587,"RA_OF_ASC_NODE":83.8882,"ARG_OF_PERICENTER":78.3047,"MEAN_ANOMALY":296.795,"EPHEMERIS_TYPE":0,"CLASSIFICATION_TYPE":"U","NORAD_CAT_ID":68069,"ELEMENT_SET_NO":999,"REV_AT_EPOCH":560,"BSTAR":0.00010943,"MEAN_MOTION_DOT":0.00016157,"MEAN_MOTION_DDOT":0},{"OBJECT_NAME":"STARLINK-36823","OBJECT_ID":"2026-042B","EPOCH":"2026-03-31T16:42:02.119104","MEAN_MOTION":15.80961766,"ECCENTRICITY":0.0001174,"INCLINATION":53.1565,"RA_OF_ASC_NODE":84.4814,"ARG_OF_PERICENTER":104.4186,"MEAN_ANOMALY":255.6967,"EPHEMERIS_TYPE":0,"CLASSIFICATION_TYPE":"U","NORAD_CAT_ID":68070,"ELEMENT_SET_NO":999,"REV_AT_EPOCH":556,"BSTAR":0.0015673,"MEAN_MOTION_DOT":0.00321757,"MEAN_MOTION_DDOT":0},{"OBJECT_NAME":"STARLINK-36970","OBJECT_ID":"2026-042C","EPOCH":"2026-03-31T09:36:46.495296","MEAN_MOTION":15.75296563,"ECCENTRICITY":0.00010254,"INCLINATION":53.1584,"RA_OF_ASC_NODE":86.203,"ARG_OF_PERICENTER":95.9439,"MEAN_ANOMALY":264.1698,"EPHEMERIS_TYPE":0,"CLASSIFICATION_TYPE":"U","NORAD_CAT_ID":68071,"ELEMENT_SET_NO":999,"REV_AT_EPOCH":551,"BSTAR":0.0018240307,"MEAN_MOTION_DOT":0.00289472,"MEAN_MOTION_DDOT":0},{"OBJECT_NAME":"STARLINK-36972","OBJECT_ID":"2026-042D","EPOCH":"2026-03-31T20:00:01.999008","MEAN_MOTION":15.7746756,"ECCENTRICITY":7.48e-5,"INCLINATION":53.1583,"RA_OF_ASC_NODE":83.7915,"ARG_OF_PERICENTER":106.6338,"MEAN_ANOMALY":315.9138,"EPHEMERIS_TYPE":0,"CLASSIFICATION_TYPE":"U","NORAD_CAT_ID":68072,"ELEMENT_SET_NO":999,"REV_AT_EPOCH":561,"BSTAR":-0.012246,"MEAN_MOTION_DOT":-0.01816413,"MEAN_MOTION_DDOT":0}]
